TRITON-1                
1 39427U 13066M   26166.60733491  .00001147  00000+0  14306-3 0  9994
2 39427  97.8257  76.4506 0088424 239.1410 120.1083 14.81700537673859
GOMX-1                  
1 39430U 13066Q   26166.61981649  .00001915  00000+0  29130-3 0  9993
2 39430  97.6479   7.1816 0130160  82.5196 279.0777 14.69456470669688
CUBEBUG-2 (LO-74)       
1 39440U 13066AA  26166.38852800  .00003783  00000+0  35100-3 0  9993
2 39440  97.8905 115.3590 0058508  34.8517 325.6511 14.93747885676725
NEE-02 KRYSAOR          
1 39441U 13066AB  26166.52650132  .00002097  00000+0  23305-3 0  9995
2 39441  97.8894 105.7531 0067691  75.5305 285.3408 14.86612129675956
FUNCUBE-1 (AO-73)       
1 39444U 13066AE  26166.46559247  .00005832  00000+0  36309-3 0  9994
2 39444  97.8272 137.8755 0035504 207.0229 152.9152 15.09471681679409
UWE-3                   
1 39446U 13066AG  26166.41095872  .00003615  00000+0  31229-3 0  9993
2 39446  97.8693 122.4726 0047855 327.0614  32.7628 14.97011844677317
SMDC ONE 2.4            
1 39469U 13072H   26166.35797396  .00008009  00000+0  31045-3 0  9996
2 39469 120.4929 345.0220 0145093  17.0832 343.5059 15.18151408117551
COSMOS 2488 (RODNIK-S 7)
1 39483U 13076A   26166.58889756  .00000113  00000+0  74166-3 0  9992
2 39483  82.4823 169.6906 0020851  98.5660 261.7784 12.42906200565695
COSMOS 2489 (RODNIK-S 8)
1 39484U 13076B   26166.56406464  .00000033  00000+0  16350-3 0  9994
2 39484  82.4860 171.0842 0022675  98.5735 261.7916 12.42879666565740
COSMOS 2490 (RODNIK-S 9)
1 39485U 13076C   26166.61644925  .00000048  00000+0  27541-3 0  9997
2 39485  82.4806 169.1197 0022711 113.3774 246.9698 12.42878380565689
KAZEOSAT 1              
1 39731U 14024A   26166.63400088  .00000374  00000+0  12691-3 0  9999
2 39731  98.3212 239.1198 0001395  73.0247 287.1096 14.42080298638338
COSMOS 2496 (RODNIK-S *)
1 39761U 14028A   26166.57397723 -.00000015  00000+0 -17728-3 0  9990
2 39761  82.4449 109.7415 0021338  82.1749 278.1752 12.42878382547311
COSMOS 2497 (RODNIK-S *)
1 39762U 14028B   26166.62977535 -.00000016  00000+0 -18475-3 0  9993
2 39762  82.4496 111.3956 0021899  77.3424 283.0102 12.42894013547325
COSMOS 2498 (RODNIK-S *)
1 39763U 14028C   26166.60748471 -.00000029  00000+0 -27751-3 0  9998
2 39763  82.4457 109.8974 0022618  76.9733 283.3870 12.42979964547350
HODOYOSHI-4             
1 40011U 14033B   26166.62202780  .00001162  00000+0  13132-3 0  9997
2 40011  97.5448 351.5205 0022567 314.0618  45.8740 14.88127131648575
UNISAT-6                
1 40012U 14033C   26166.38519403  .00002497  00000+0  27116-3 0  9993
2 40012  97.7874 319.1286 0046291  75.0953 285.5383 14.88238232645899
DEIMOS-2                
1 40013U 14033D   26166.64241671  .00000688  00000+0  70178-4 0  9999
2 40013  97.5835  41.1860 0001524  47.7835 312.3514 14.93719533637496
BUGSAT-1 (TITA)         
1 40014U 14033E   26166.58372427  .00005412  00000+0  28643-3 0  9996
2 40014  98.0436 259.0381 0027821 183.8897 176.2122 15.15573930655593
SAUDISAT 4              
1 40016U 14033G   26166.63100611  .00000572  00000+0  81931-4 0  9990
2 40016  97.7580 312.8195 0046193  78.9100 281.7301 14.79542932645841
APRIZESAT 9             
1 40018U 14033J   26166.37499561  .00000582  00000+0  92962-4 0  9995
2 40018  97.9058 299.6179 0065549 205.0413 154.7612 14.74212203643296
BRITE-CA1 (TORONTO)     
1 40020U 14033L   26166.33917076  .00000597  00000+0  97618-4 0  9999
2 40020  97.9736 295.3012 0077245 283.0419  76.2174 14.72674284641949
