OBJECT_NAME,OBJECT_ID,EPOCH,MEAN_MOTION,ECCENTRICITY,INCLINATION,RA_OF_ASC_NODE,ARG_OF_PERICENTER,MEAN_ANOMALY,EPHEMERIS_TYPE,CLASSIFICATION_TYPE,NORAD_CAT_ID,ELEMENT_SET_NO,REV_AT_EPOCH,BSTAR,MEAN_MOTION_DOT,MEAN_MOTION_DDOT
TRITON-1,2013-066M,2026-06-15T14:34:33.736224,14.81700537,.00884245,97.8257,76.4506,239.1410,120.1083,0,U,39427,999,67385,.14305543E-3,.1147E-4,0
GOMX-1,2013-066Q,2026-06-15T14:52:32.144736,14.69456470,.01301609,97.6479,7.1816,82.5196,279.0777,0,U,39430,999,66968,.29130131E-3,.1915E-4,0
CUBEBUG-2 (LO-74),2013-066AA,2026-06-15T09:19:28.819200,14.93747885,.00585087,97.8905,115.3590,34.8517,325.6511,0,U,39440,999,67672,.35100299E-3,.3783E-4,0
NEE-02 KRYSAOR,2013-066AB,2026-06-15T12:38:09.714048,14.86612129,.00676919,97.8894,105.7531,75.5305,285.3408,0,U,39441,999,67595,.23304651E-3,.2097E-4,0
FUNCUBE-1 (AO-73),2013-066AE,2026-06-15T11:10:27.189408,15.09471681,.00355045,97.8272,137.8755,207.0229,152.9152,0,U,39444,999,67940,.36308765E-3,.5832E-4,0
UWE-3,2013-066AG,2026-06-15T09:51:46.833408,14.97011844,.00478551,97.8693,122.4726,327.0614,32.7628,0,U,39446,999,67731,.31228687E-3,.3615E-4,0
SMDC ONE 2.4,2013-072H,2026-06-15T08:35:28.950144,15.18151408,.01450935,120.4929,345.0220,17.0832,343.5059,0,U,39469,999,11755,.31045309E-3,.8009E-4,0
COSMOS 2488 (RODNIK-S 7),2013-076A,2026-06-15T14:08:00.749184,12.42906200,.00208511,82.4823,169.6906,98.5660,261.7784,0,U,39483,999,56569,.74166076E-3,.113E-5,0
COSMOS 2489 (RODNIK-S 8),2013-076B,2026-06-15T13:32:15.184896,12.42879666,.00226756,82.4860,171.0842,98.5735,261.7916,0,U,39484,999,56574,.16350494E-3,.33E-6,0
COSMOS 2490 (RODNIK-S 9),2013-076C,2026-06-15T14:47:41.215200,12.42878380,.00227119,82.4806,169.1197,113.3774,246.9698,0,U,39485,999,56568,.27541336E-3,.48E-6,0
KAZEOSAT 1,2014-024A,2026-06-15T15:12:57.676032,14.42080298,.00013951,98.3212,239.1198,73.0247,287.1096,0,U,39731,999,63833,.12691239E-3,.374E-5,0
COSMOS 2496 (RODNIK-S 10),2014-028A,2026-06-15T13:46:31.632672,12.42878382,.00213384,82.4449,109.7415,82.1749,278.1752,0,U,39761,999,54731,-.17727685E-3,-.15E-6,0
COSMOS 2497 (RODNIK-S 11),2014-028B,2026-06-15T15:06:52.590240,12.42894013,.00218994,82.4496,111.3956,77.3424,283.0102,0,U,39762,999,54732,-.18475223E-3,-.16E-6,0
COSMOS 2498 (RODNIK-S 12),2014-028C,2026-06-15T14:34:46.678944,12.42979964,.00226186,82.4457,109.8974,76.9733,283.3870,0,U,39763,999,54735,-.27750505E-3,-.29E-6,0
HODOYOSHI-4,2014-033B,2026-06-15T14:55:43.201920,14.88127131,.0022567,97.5448,351.5205,314.0618,45.8740,0,U,40011,999,64857,.1313249E-3,.1162E-4,0
UNISAT-6,2014-033C,2026-06-15T09:14:40.764192,14.88238232,.00462912,97.7874,319.1286,75.0953,285.5383,0,U,40012,999,64589,.2711613E-3,.2497E-4,0
DEIMOS-2,2014-033D,2026-06-15T15:25:04.803744,14.93719533,.00015248,97.5835,41.1860,47.7835,312.3514,0,U,40013,999,63749,.70177627E-4,.688E-5,0
BUGSAT-1 (TITA),2014-033E,2026-06-15T14:00:33.776928,15.15573930,.00278217,98.0436,259.0381,183.8897,176.2122,0,U,40014,999,65559,.28642995E-3,.5412E-4,0
SAUDISAT 4,2014-033G,2026-06-15T15:08:38.927904,14.79542932,.00461933,97.7580,312.8195,78.9100,281.7301,0,U,40016,999,64584,.81931438E-4,.572E-5,0
APRIZESAT 9,2014-033J,2026-06-15T08:59:59.620704,14.74212203,.00655498,97.9058,299.6179,205.0413,154.7612,0,U,40018,999,64329,.92961673E-4,.582E-5,0
BRITE-CA1 (TORONTO),2014-033L,2026-06-15T08:08:24.353664,14.72674284,.00772454,97.9736,295.3012,283.0419,76.2174,0,U,40020,999,64194,.97618131E-4,.597E-5,0
